[
    {
        "Altitude(m)": 604234.5942154137,
        "Argument of Periapsis(deg)": 0.0,
        "Eccentricity": 0.0,
        "Inclination(deg)": 60.0,
        "Latitude(deg)": 14.117150142114204,
        "Longitude(deg)": -38.272689240181904,
        "Mean Anomaly(deg)": -196.36359999999996,
        "RAAN(deg)": 250.00000000000003,
        "Satellite Name": "Test1 1110",
        "Satellite Number": 1110,
        "Semi-Major Axis(m)": 6980739.136638005,
        "Time(s)": 0
    },
    {
        "Altitude(m)": 604223.4233658569,
        "Argument of Periapsis(deg)": 0.00010418945913296404,
        "Eccentricity": 0.0,
        "Inclination(deg)": 60.0,
        "Latitude(deg)": 13.582286841125239,
        "Longitude(deg)": -37.98577951373454,
        "Mean Anomaly(deg)": -195.74349385453812,
        "RAAN(deg)": 249.99957995086027,
        "Satellite Name": "Test1 1110",
        "Satellite Number": 1110,
        "Semi-Major Axis(m)": 6980739.136638005,
        "Time(s)": 10
    }
]